[{"OBJECT_NAME":"STARLINK-6157","OBJECT_ID":"2023-061F","EPOCH":"2026-03-09T22:00:01.999584","MEAN_MOTION":15.1513954,"ECCENTRICITY":0.00021581,"INCLINATION":43,"RA_OF_ASC_NODE":195.7762,"ARG_OF_PERICENTER":270.2973,"MEAN_ANOMALY":110.2271,"EPHEMERIS_TYPE":0,"CLASSIFICATION_TYPE":"U","NORAD_CAT_ID":56379,"ELEMENT_SET_NO":999,"REV_AT_EPOCH":572,"BSTAR":0.064935447,"MEAN_MOTION_DOT":0.01347423,"MEAN_MOTION_DDOT":0},{"OBJECT_NAME":"GOOD ANCESTOR KILAKILA","OBJECT_ID":"2025-135A","EPOCH":"2026-03-09T20:23:34.960416","MEAN_MOTION":15.223265,"ECCENTRICITY":0.00056529,"INCLINATION":97.4506,"RA_OF_ASC_NODE":184.7346,"ARG_OF_PERICENTER":162.0939,"MEAN_ANOMALY":198.0498,"EPHEMERIS_TYPE":0,"CLASSIFICATION_TYPE":"U","NORAD_CAT_ID":64528,"ELEMENT_SET_NO":999,"REV_AT_EPOCH":3976,"BSTAR":0.00051974795,"MEAN_MOTION_DOT":0.00011925,"MEAN_MOTION_DDOT":0}]
